{
  "type": "FeatureCollection",
  "features": [
    {
      "type": "Feature",
      "properties": {
        "norad_id": 30691,
        "name": "FENGYUN 1C DEB",
        "group": "fengyun-1c-debris",
        "lat": -9.545545064716778,
        "lon": -6.560128207997161,
        "alt_km": 949.7104386490546,
        "timestamp": "2025-12-06T03:35:02.149301+00:00",
        "meta_object_name": "FENGYUN 1C DEB",
        "meta_object_id": "1999-025AQZ",
        "meta_epoch": "2025-12-04T12:37:57.967968",
        "meta_mean_motion": 13.89397737,
        "meta_eccentricity": 0.0139074,
        "meta_inclination": 98.7428,
        "meta_ra_of_asc_node": 350.4328,
        "meta_arg_of_pericenter": 255.6423,
        "meta_mean_anomaly": 259.8588,
        "meta_ephemeris_type": 0,
        "meta_classification_type": "U",
        "meta_norad_cat_id": 30691,
        "meta_element_set_no": 999,
        "meta_rev_at_epoch": 95002,
        "meta_bstar": 0.001825,
        "meta_mean_motion_dot": 2.365e-05,
        "meta_mean_motion_ddot": 0,
        "tle_line1": "1 30691U 99025AQZ 25338.52636537  .00002365  00000+0  18250-2 0  9995",
        "tle_line2": "2 30691  98.7428 350.4328 0139074 255.6423 259.8588 13.89397737950023"
      },
      "geometry": {
        "type": "Point",
        "coordinates": [
          -6.560128207997161,
          -9.545545064716778
        ]
      }
    },
    {
      "type": "Feature",
      "properties": {
        "norad_id": 30693,
        "name": "FENGYUN 1C DEB",
        "group": "fengyun-1c-debris",
        "lat": -75.73330110910585,
        "lon": 108.51729102526566,
        "alt_km": 849.0736285952144,
        "timestamp": "2025-12-06T03:35:02.149313+00:00",
        "meta_object_name": "FENGYUN 1C DEB",
        "meta_object_id": "1999-025ARB",
        "meta_epoch": "2025-12-04T04:29:17.934432",
        "meta_mean_motion": 14.13271306,
        "meta_eccentricity": 0.0028886,
        "meta_inclination": 98.6856,
        "meta_ra_of_asc_node": 323.5656,
        "meta_arg_of_pericenter": 191.9396,
        "meta_mean_anomaly": 168.1095,
        "meta_ephemeris_type": 0,
        "meta_classification_type": "U",
        "meta_norad_cat_id": 30693,
        "meta_element_set_no": 999,
        "meta_rev_at_epoch": 96814,
        "meta_bstar": 0.00055633,
        "meta_mean_motion_dot": 1.004e-05,
        "meta_mean_motion_ddot": 0,
        "tle_line1": "1 30693U 99025ARB 25338.18701313  .00001004  00000+0  55633-3 0  9990",
        "tle_line2": "2 30693  98.6856 323.5656 0028886 191.9396 168.1095 14.13271306968141"
      },
      "geometry": {
        "type": "Point",
        "coordinates": [
          108.51729102526566,
          -75.73330110910585
        ]
      }
    },
    {
      "type": "Feature",
      "properties": {
        "norad_id": 30694,
        "name": "FENGYUN 1C DEB",
        "group": "fengyun-1c-debris",
        "lat": -39.35452068047652,
        "lon": 117.93636725561271,
        "alt_km": 625.1013095190829,
        "timestamp": "2025-12-06T03:35:02.149323+00:00",
        "meta_object_name": "FENGYUN 1C DEB",
        "meta_object_id": "1999-025ARC",
        "meta_epoch": "2025-12-04T16:39:08.549280",
        "meta_mean_motion": 14.86053707,
        "meta_eccentricity": 0.01321587,
        "meta_inclination": 99.046,
        "meta_ra_of_asc_node": 303.7895,
        "meta_arg_of_pericenter": 320.6213,
        "meta_mean_anomaly": 38.5447,
        "meta_ephemeris_type": 0,
        "meta_classification_type": "U",
        "meta_norad_cat_id": 30694,
        "meta_element_set_no": 999,
        "meta_rev_at_epoch": 99982,
        "meta_bstar": 0.0035938573,
        "meta_mean_motion_dot": 0.0003695,
        "meta_mean_motion_ddot": 0,
        "tle_line1": "1 30694U 99025ARC 25338.69384895  .00036950  00000+0  35939-2 0  9993",
        "tle_line2": "2 30694  99.0460 303.7895 0132158 320.6213  38.5447 14.86053707999823"
      },
      "geometry": {
        "type": "Point",
        "coordinates": [
          117.93636725561271,
          -39.35452068047652
        ]
      }
    },
    {
      "type": "Feature",
      "properties": {
        "norad_id": 30696,
        "name": "FENGYUN 1C DEB",
        "group": "fengyun-1c-debris",
        "lat": 64.62125109783807,
        "lon": 11.125779240271351,
        "alt_km": 724.3766401659977,
        "timestamp": "2025-12-06T03:35:02.149334+00:00",
        "meta_object_name": "FENGYUN 1C DEB",
        "meta_object_id": "1999-025ARE",
        "meta_epoch": "2025-12-04T19:58:24.965760",
        "meta_mean_motion": 14.44688128,
        "meta_eccentricity": 0.00899451,
        "meta_inclination": 98.3899,
        "meta_ra_of_asc_node": 27.9515,
        "meta_arg_of_pericenter": 149.4354,
        "meta_mean_anomaly": 271.4631,
        "meta_ephemeris_type": 0,
        "meta_classification_type": "U",
        "meta_norad_cat_id": 30696,
        "meta_element_set_no": 999,
        "meta_rev_at_epoch": 98190,
        "meta_bstar": 0.0020496298,
        "meta_mean_motion_dot": 7.427e-05,
        "meta_mean_motion_ddot": 0,
        "tle_line1": "1 30696U 99025ARE 25338.83223340  .00007427  00000+0  20496-2 0  9997",
        "tle_line2": "2 30696  98.3899  27.9515 0089945 149.4354 271.4631 14.44688128981903"
      },
      "geometry": {
        "type": "Point",
        "coordinates": [
          11.125779240271351,
          64.62125109783807
        ]
      }
    },
    {
      "type": "Feature",
      "properties": {
        "norad_id": 30697,
        "name": "FENGYUN 1C DEB",
        "group": "fengyun-1c-debris",
        "lat": -36.34898763042828,
        "lon": -149.60760010580898,
        "alt_km": 791.9925943445787,
        "timestamp": "2025-12-06T03:35:02.149345+00:00",
        "meta_object_name": "FENGYUN 1C DEB",
        "meta_object_id": "1999-025ARF",
        "meta_epoch": "2025-12-04T15:36:00.756000",
        "meta_mean_motion": 14.13445219,
        "meta_eccentricity": 0.0087816,
        "meta_inclination": 98.9078,
        "meta_ra_of_asc_node": 35.5271,
        "meta_arg_of_pericenter": 207.8421,
        "meta_mean_anomaly": 303.7406,
        "meta_ephemeris_type": 0,
        "meta_classification_type": "U",
        "meta_norad_cat_id": 30697,
        "meta_element_set_no": 999,
        "meta_rev_at_epoch": 96146,
        "meta_bstar": 0.0032239,
        "meta_mean_motion_dot": 6.249e-05,
        "meta_mean_motion_ddot": 0,
        "tle_line1": "1 30697U 99025ARF 25338.65000875  .00006249  00000+0  32239-2 0  9993",
        "tle_line2": "2 30697  98.9078  35.5271 0087816 207.8421 303.7406 14.13445219961468"
      },
      "geometry": {
        "type": "Point",
        "coordinates": [
          -149.60760010580898,
          -36.34898763042828
        ]
      }
    },
    {
      "type": "Feature",
      "properties": {
        "norad_id": 30699,
        "name": "FENGYUN 1C DEB",
        "group": "fengyun-1c-debris",
        "lat": -79.51748408474285,
        "lon": 161.45221671139768,
        "alt_km": 740.8920514409747,
        "timestamp": "2025-12-06T03:35:02.149355+00:00",
        "meta_object_name": "FENGYUN 1C DEB",
        "meta_object_id": "1999-025ARH",
        "meta_epoch": "2025-12-05T06:23:57.311520",
        "meta_mean_motion": 14.46741996,
        "meta_eccentricity": 0.00037128,
        "meta_inclination": 99.3123,
        "meta_ra_of_asc_node": 98.0055,
        "meta_arg_of_pericenter": 270.8769,
        "meta_mean_anomaly": 89.1995,
        "meta_ephemeris_type": 0,
        "meta_classification_type": "U",
        "meta_norad_cat_id": 30699,
        "meta_element_set_no": 999,
        "meta_rev_at_epoch": 97505,
        "meta_bstar": 0.00445373,
        "meta_mean_motion_dot": 0.000161,
        "meta_mean_motion_ddot": 0,
        "tle_line1": "1 30699U 99025ARH 25339.26663555  .00016100  00000+0  44537-2 0  9994",
        "tle_line2": "2 30699  99.3123  98.0055 0003712 270.8769  89.1995 14.46741996975053"
      },
      "geometry": {
        "type": "Point",
        "coordinates": [
          161.45221671139768,
          -79.51748408474285
        ]
      }
    },
    {
      "type": "Feature",
      "properties": {
        "norad_id": 30700,
        "name": "FENGYUN 1C DEB",
        "group": "fengyun-1c-debris",
        "lat": -14.913812152488283,
        "lon": -173.64174235689808,
        "alt_km": 764.5688408979577,
        "timestamp": "2025-12-06T03:35:02.149366+00:00",
        "meta_object_name": "FENGYUN 1C DEB",
        "meta_object_id": "1999-025ARJ",
        "meta_epoch": "2025-12-03T07:12:35.856000",
        "meta_mean_motion": 14.23780889,
        "meta_eccentricity": 0.0086694,
        "meta_inclination": 98.5427,
        "meta_ra_of_asc_node": 5.885,
        "meta_arg_of_pericenter": 170.6255,
        "meta_mean_anomaly": 189.6567,
        "meta_ephemeris_type": 0,
        "meta_classification_type": "U",
        "meta_norad_cat_id": 30700,
        "meta_element_set_no": 999,
        "meta_rev_at_epoch": 97435,
        "meta_bstar": 0.00026931,
        "meta_mean_motion_dot": 5.98e-06,
        "meta_mean_motion_ddot": 0,
        "tle_line1": "1 30700U 99025ARJ 25337.30041500  .00000598  00000+0  26931-3 0  9993",
        "tle_line2": "2 30700  98.5427   5.8850 0086694 170.6255 189.6567 14.23780889974352"
      },
      "geometry": {
        "type": "Point",
        "coordinates": [
          -173.64174235689808,
          -14.913812152488283
        ]
      }
    }
  ]
}